{
    "links": {
        "self": "http://www.neowsapp.com/rest/v1/neo/3776109?api_key=iIulBulltgU6a56xZRHN4H3l9WmuAYTsLGpBGhQ2"
    },
    "id": "3776109",
    "neo_reference_id": "3776109",
    "name": "(2017 MH7)",
    "designation": "2017 MH7",
    "nasa_jpl_url": "http://ssd.jpl.nasa.gov/sbdb.cgi?sstr=3776109",
    "absolute_magnitude_h": 21.5,
    "estimated_diameter": {
        "kilometers": {
            "estimated_diameter_min": 0.1332155667,
            "estimated_diameter_max": 0.2978790628
        },
        "meters": {
            "estimated_diameter_min": 133.2155666981,
            "estimated_diameter_max": 297.8790627982
        },
        "miles": {
            "estimated_diameter_min": 0.0827762899,
            "estimated_diameter_max": 0.1850934111
        },
        "feet": {
            "estimated_diameter_min": 437.0589598459,
            "estimated_diameter_max": 977.2935443908
        }
    },
    "is_potentially_hazardous_asteroid": true,
    "close_approach_data": [
        {
            "close_approach_date": "2017-07-13",
            "close_approach_date_full": "2017-Jul-13 18:24",
            "epoch_date_close_approach": 1499970240000,
            "relative_velocity": {
                "kilometers_per_second": "23.1090747572",
                "kilometers_per_hour": "83192.6691259513",
                "miles_per_hour": "51692.6893244001"
            },
            "miss_distance": {
                "astronomical": "0.1015741568",
                "lunar": "39.5123469952",
                "kilometers": "15195277.504326016",
                "miles": "9441907.6141143808"
            },
            "orbiting_body": "Earth"
        },
        {
            "close_approach_date": "2198-10-24",
            "close_approach_date_full": "2198-Oct-24 17:56",
            "epoch_date_close_approach": 7220685360000,
            "relative_velocity": {
                "kilometers_per_second": "18.7730937165",
                "kilometers_per_hour": "67583.1373794007",
                "miles_per_hour": "41993.5333344393"
            },
            "miss_distance": {
                "astronomical": "0.3770248127",
                "lunar": "146.6626521403",
                "kilometers": "56402108.917068949",
                "miles": "35046645.3465275362"
            },
            "orbiting_body": "Earth"
        }
    ],
    "orbital_data": {
        "orbit_id": "2",
        "orbit_determination_date": "2017-07-19 06:20:04",
        "first_observation_date": "2017-06-24",
        "last_observation_date": "2017-07-10",
        "data_arc_in_days": 16,
        "observations_used": 30,
        "orbit_uncertainty": "8",
        "minimum_orbit_intersection": ".00528686",
        "jupiter_tisserand_invariant": "3.054",
        "epoch_osculation": "2457932.5",
        "eccentricity": ".731504723424079",
        "semi_major_axis": "2.41763625555539",
        "inclination": "14.01739010748629",
        "ascending_node_longitude": "96.04357750118001",
        "orbital_period": "1373.04530242795",
        "perihelion_distance": ".6491239150953183",
        "perihelion_argument": "282.515840626539",
        "aphelion_distance": "4.186148596015461",
        "perihelion_time": "2457996.012472795705",
        "mean_anomaly": "343.3476068371359",
        "mean_motion": ".2621909119556461",
        "equinox": "J2000",
        "orbit_class": {
            "orbit_class_type": "APO",
            "orbit_class_description": "Near-Earth asteroid orbits which cross the Earth’s orbit similar to that of 1862 Apollo",
            "orbit_class_range": "a (semi-major axis) > 1.0 AU; q (perihelion) < 1.017 AU"
        }
    },
    "is_sentry_object": false
}